[{"OBJECT_NAME":"LEMUR-2-AMANDA-SVANTE","OBJECT_ID":"2021-034B","EPOCH":"2026-03-09T18:37:58.823328","MEAN_MOTION":15.28469003,"ECCENTRICITY":0.00027027,"INCLINATION":97.5829,"RA_OF_ASC_NODE":144.8625,"ARG_OF_PERICENTER":205.4721,"MEAN_ANOMALY":154.6385,"EPHEMERIS_TYPE":0,"CLASSIFICATION_TYPE":"U","NORAD_CAT_ID":48269,"ELEMENT_SET_NO":999,"REV_AT_EPOCH":26584,"BSTAR":0.0011134246,"MEAN_MOTION_DOT":0.00030872,"MEAN_MOTION_DDOT":0},{"OBJECT_NAME":"STARLINK-30943","OBJECT_ID":"2023-183N","EPOCH":"2026-03-09T22:00:01.999584","MEAN_MOTION":15.26752373,"ECCENTRICITY":0.00014888,"INCLINATION":43.0005,"RA_OF_ASC_NODE":14.4403,"ARG_OF_PERICENTER":258.0683,"MEAN_ANOMALY":235.2056,"EPHEMERIS_TYPE":0,"CLASSIFICATION_TYPE":"U","NORAD_CAT_ID":58449,"ELEMENT_SET_NO":999,"REV_AT_EPOCH":578,"BSTAR":0.00020182866,"MEAN_MOTION_DOT":5.16e-5,"MEAN_MOTION_DDOT":0}]
